OBJECT_NAME,OBJECT_ID,EPOCH,MEAN_MOTION,ECCENTRICITY,INCLINATION,RA_OF_ASC_NODE,ARG_OF_PERICENTER,MEAN_ANOMALY,EPHEMERIS_TYPE,CLASSIFICATION_TYPE,NORAD_CAT_ID,ELEMENT_SET_NO,REV_AT_EPOCH,BSTAR,MEAN_MOTION_DOT,MEAN_MOTION_DDOT
GAOFEN-3,2016-049A,2026-06-25T04:49:43.974624,14.42216009,.0001559,98.4015,183.8662,98.0518,262.0849,0,U,41727,999,51980,-.10762E-4,-.79E-6,0
SKYSAT-C4,2016-058B,2026-06-25T00:30:24.975360,15.48811540,.0001938,96.9176,197.4653,139.7950,220.3446,0,U,41771,999,54668,.34275E-3,.18357E-3,0
SKYSAT-C5,2016-058C,2026-06-25T01:25:41.316672,15.34570645,.0001047,97.0471,216.3485,233.3226,126.7922,0,U,41772,999,54495,.24544E-3,.8147E-4,0
SKYSAT-C2,2016-058D,2026-06-25T01:06:00.748800,15.42232769,.0004027,97.0172,197.8453,53.8507,306.3113,0,U,41773,999,54626,.31753E-3,.13569E-3,0
SKYSAT-C3,2016-058E,2026-06-25T01:41:22.215264,15.52850947,.0001237,96.9009,206.6140,114.3829,245.7554,0,U,41774,999,54733,.4117E-3,.25486E-3,0
ALSAT-1B,2016-059C,2026-06-25T04:36:18.796608,14.72279932,.0008712,97.7754,184.6104,191.6840,168.4167,0,U,41785,999,52175,.65397E-4,.366E-5,0
PATHFINDER 1,2016-059E,2026-06-24T23:26:40.260768,14.67670728,.0028438,97.8166,174.9016,178.4719,181.6578,0,U,41787,999,52085,.97996E-4,.514E-5,0
SCATSAT 1,2016-059H,2026-06-25T04:38:48.449184,14.79541526,.0053742,98.1187,240.0424,221.1538,138.5615,0,U,41790,999,10277,.15481E-3,.1129E-4,0
GOKTURK 1A,2016-073A,2026-06-25T04:20:02.810112,14.62780247,.0001435,98.1243,70.7293,76.6420,283.4941,0,U,41875,999,50999,.11715E-3,.551E-5,0
RESOURCESAT-2A,2016-074A,2026-06-25T03:57:13.029696,14.21618999,.0003223,98.7525,249.6041,69.0789,291.0733,0,U,41877,999,49543,.75283E-4,.121E-5,0
CARTOSAT-2D,2017-008A,2026-06-25T04:39:15.731712,15.19259637,.0004518,97.4106,235.3504,200.0050,160.1008,0,U,41948,999,51879,.20871E-3,.4333E-4,0
SENTINEL-2B,2017-013A,2026-06-25T04:18:30.287808,14.30819050,.0001181,98.5689,250.8412,87.9614,272.1704,0,U,42063,999,48578,.58383E-4,.109E-5,0
CARTOSAT-2E,2017-036C,2026-06-25T03:29:49.208352,15.19221398,.0002187,97.4278,235.8169,282.6303,77.4687,0,U,42767,999,49935,.21109E-3,.4378E-4,0
FORMOSAT-5,2017-049A,2026-06-25T04:34:24.929184,14.50901394,.0012494,98.2252,251.3225,62.1572,298.0887,0,U,42920,999,46783,.42675E-4,.125E-5,0
SENTINEL-5P,2017-064A,2026-06-24T02:37:41.365920,14.19520022,.00010092,98.7926,117.1916,88.7280,271.4012,0,U,42969,999,45054,.33791162E-4,.27E-6,0
SKYSAT-C11,2017-068A,2026-06-24T22:57:55.975104,15.58262904,.0000507,97.4354,325.1286,120.5956,239.5349,0,U,42987,999,48445,.41023E-3,.30994E-3,0
SKYSAT-C10,2017-068B,2026-06-24T03:19:31.787040,15.34737978,.00011537,97.4508,312.0542,103.6982,256.4389,0,U,42988,999,48342,.23796992E-3,.7932E-4,0
SKYSAT-C9,2017-068C,2026-06-24T02:51:43.620768,15.41711307,.0009564,97.4427,313.0357,111.4507,248.7761,0,U,42989,999,48382,.29003361E-3,.1218E-3,0
SKYSAT-C8,2017-068D,2026-06-24T02:23:01.153824,15.37092162,.00013861,97.4524,311.8407,95.7828,264.3575,0,U,42990,999,48337,.25308754E-3,.9105E-4,0
SKYSAT-C7,2017-068E,2026-06-25T04:47:49.867008,15.37070823,.0007103,97.4535,313.9462,83.4452,276.7600,0,U,42991,999,48360,.33178E-3,.11967E-3,0
SKYSAT-C6,2017-068F,2026-06-24T03:00:48.746880,15.34065078,.0005186,97.4567,312.8004,132.1780,227.9904,0,U,42992,999,48338,.21096392E-3,.6875E-4,0
CARTOSAT-2F,2018-004A,2026-06-25T04:16:22.973952,15.19270808,.0001563,97.4787,235.7350,175.6666,184.4583,0,U,43111,999,46854,.27933E-3,.5823E-4,0
GAOFEN-1 02,2018-031A,2026-06-25T05:27:56.255616,14.76418669,.0003076,98.0526,238.7323,11.5040,348.6240,0,U,43259,999,44388,.11361E-3,.738E-5,0
GAOFEN-1 03,2018-031B,2026-06-25T00:03:33.749280,14.76433937,.0003706,98.0515,238.3654,63.6994,296.4595,0,U,43260,999,44384,.22651E-4,.106E-5,0
GAOFEN-1 04,2018-031D,2026-06-25T04:21:30.801600,14.76442360,.0002054,98.0527,238.7356,67.7501,292.3926,0,U,43262,999,44386,.41266E-4,.235E-5,0
SENTINEL-3B,2018-039A,2026-06-25T04:25:42.507264,14.26736832,.0000735,98.6245,243.6020,104.6006,255.5256,0,U,43437,999,42526,.57471E-4,.95E-6,0
GAOFEN-5 01,2018-043A,2026-06-24T22:33:19.245312,14.60610186,.0002932,98.4572,147.6889,69.8088,290.3427,0,U,43461,999,43282,.71184E-4,.297E-5,0
GAOFEN-6,2018-048A,2026-06-25T04:52:24.894624,14.76428211,.0011537,98.0451,238.8639,139.4797,220.7273,0,U,43484,999,43457,.36175E-4,.2E-5,0
GAOFEN-11 01,2018-063A,2026-06-25T05:09:57.845376,15.55497851,.0002187,97.1291,243.0734,318.8360,41.2729,0,U,43585,999,44159,.23504E-3,.15959E-3,0
ICESAT-2,2018-070A,2026-06-25T00:17:37.313088,15.28350526,.0006139,92.0079,293.0932,93.2467,266.9485,0,U,43613,999,43365,.40037E-3,.11058E-3,0
