GAOFEN-3                
1 41727U 16049A   26176.20120341 -.00000079  00000+0 -10762-4 0  9993
2 41727  98.4015 183.8662 0001559  98.0518 262.0849 14.42216009519808
SKYSAT-C4               
1 41771U 16058B   26176.02112240  .00018357  00000+0  34275-3 0  9991
2 41771  96.9176 197.4653 0001938 139.7950 220.3446 15.48811540546687
SKYSAT-C5               
1 41772U 16058C   26176.05950598  .00008147  00000+0  24544-3 0  9995
2 41772  97.0471 216.3485 0001047 233.3226 126.7922 15.34570645544959
SKYSAT-C2               
1 41773U 16058D   26176.04584200  .00013569  00000+0  31753-3 0  9992
2 41773  97.0172 197.8453 0004027  53.8507 306.3113 15.42232769546269
SKYSAT-C3               
1 41774U 16058E   26176.07039601  .00025486  00000+0  41170-3 0  9991
2 41774  96.9009 206.6140 0001237 114.3829 245.7554 15.52850947547338
ALSAT-1B                
1 41785U 16059C   26176.19188422  .00000366  00000+0  65397-4 0  9991
2 41785  97.7754 184.6104 0008712 191.6840 168.4167 14.72279932521756
PATHFINDER 1            
1 41787U 16059E   26175.97685487  .00000514  00000+0  97996-4 0  9996
2 41787  97.8166 174.9016 0028438 178.4719 181.6578 14.67670728520850
SCATSAT 1               
1 41790U 16059H   26176.19361631  .00001129  00000+0  15481-3 0  9998
2 41790  98.1187 240.0424 0053742 221.1538 138.5615 14.79541526102776
GOKTURK 1A              
1 41875U 16073A   26176.18058808  .00000551  00000+0  11715-3 0  9990
2 41875  98.1243  70.7293 0001435  76.6420 283.4941 14.62780247509994
RESOURCESAT-2A          
1 41877U 16074A   26176.16473414  .00000121  00000+0  75283-4 0  9999
2 41877  98.7525 249.6041 0003223  69.0789 291.0733 14.21618999495430
CARTOSAT-2D             
1 41948U 17008A   26176.19393208  .00004333  00000+0  20871-3 0  9992
2 41948  97.4106 235.3504 0004518 200.0050 160.1008 15.19259637518796
SENTINEL-2B             
1 42063U 17013A   26176.17951722  .00000109  00000+0  58383-4 0  9993
2 42063  98.5689 250.8412 0001181  87.9614 272.1704 14.30819050485786
CARTOSAT-2E             
1 42767U 17036C   26176.14570843  .00004378  00000+0  21109-3 0  9994
2 42767  97.4278 235.8169 0002187 282.6303  77.4687 15.19221398499351
FORMOSAT-5              
1 42920U 17049A   26176.19056631  .00000125  00000+0  42675-4 0  9996
2 42920  98.2252 251.3225 0012494  62.1572 298.0887 14.50901394467836
SENTINEL-5P             
1 42969U 17064A   26175.10950655  .00000027  00000+0  33791-4 0  9995
2 42969  98.7926 117.1916 0001009  88.7280 271.4012 14.19520022450543
SKYSAT-C11              
1 42987U 17068A   26175.95689786  .00030994  00000+0  41023-3 0  9998
2 42987  97.4354 325.1286 0000507 120.5956 239.5349 15.58262904484453
SKYSAT-C10              
1 42988U 17068B   26175.13856235  .00007932  00000+0  23797-3 0  9998
2 42988  97.4508 312.0542 0001153 103.6982 256.4389 15.34737978483424
SKYSAT-C9               
1 42989U 17068C   26175.11925487  .00012180  00000+0  29003-3 0  9990
2 42989  97.4427 313.0357 0009564 111.4507 248.7761 15.41711307483822
SKYSAT-C8               
1 42990U 17068D   26175.09931891  .00009105  00000+0  25309-3 0  9993
2 42990  97.4524 311.8407 0001386  95.7828 264.3575 15.37092162483371
SKYSAT-C7               
1 42991U 17068E   26176.19988272  .00011967  00000+0  33178-3 0  9993
2 42991  97.4535 313.9462 0007103  83.4452 276.7600 15.37070823483600
SKYSAT-C6               
1 42992U 17068F   26175.12556420  .00006875  00000+0  21096-3 0  9990
2 42992  97.4567 312.8004 0005186 132.1780 227.9904 15.34065078483384
CARTOSAT-2F             
1 43111U 18004A   26176.17804368  .00005823  00000+0  27933-3 0  9996
2 43111  97.4787 235.7350 0001563 175.6666 184.4583 15.19270808468542
GAOFEN-1 02             
1 43259U 18031A   26176.22773444  .00000738  00000+0  11361-3 0  9993
2 43259  98.0526 238.7323 0003076  11.5040 348.6240 14.76418669443886
GAOFEN-1 03             
1 43260U 18031B   26176.00247395  .00000106  00000+0  22651-4 0  9996
2 43260  98.0515 238.3654 0003706  63.6994 296.4595 14.76433937443849
GAOFEN-1 04             
1 43262U 18031D   26176.18160650  .00000235  00000+0  41266-4 0  9991
2 43262  98.0527 238.7356 0002054  67.7501 292.3926 14.76442360443866
SENTINEL-3B             
1 43437U 18039A   26176.18451976  .00000095  00000+0  57471-4 0  9996
2 43437  98.6245 243.6020 0000735 104.6006 255.5256 14.26736832425267
GAOFEN-5 01             
1 43461U 18043A   26175.93980608  .00000297  00000+0  71184-4 0  9990
2 43461  98.4572 147.6889 0002932  69.8088 290.3427 14.60610186432822
GAOFEN-6                
1 43484U 18048A   26176.20306591  .00000200  00000+0  36175-4 0  9999
2 43484  98.0451 238.8639 0011537 139.4797 220.7273 14.76428211434570
GAOFEN-11 01            
1 43585U 18063A   26176.21525284  .00015959  00000+0  23504-3 0  9999
2 43585  97.1291 243.0734 0002187 318.8360  41.2729 15.55497851441594
ICESAT-2                
1 43613U 18070A   26176.01223742  .00011058  00000+0  40037-3 0  9997
2 43613  92.0079 293.0932 0006139  93.2467 266.9485 15.28350526433652
